GLOBALSTAR M045         
1 25676U 99019A   24172.43344564 -.00000093  00000+0  58557-5 0  9990
2 25676  51.9969 256.3263 0000703 187.1745 254.5118 12.27040070148986
GLOBALSTAR M019         
1 25677U 99019B   24172.31024256 -.00000121  00000+0 -31912-3 0  9998
2 25677  51.9893   1.5813 0000605  10.8347 160.3246 12.13856677141190
GLOBALSTAR M044         
1 25678U 99019C   24172.57857235 -.00000054  00000+0  41143-3 0  9999
2 25678  51.9970 266.9593 0006450  66.9578  35.5110 11.90233787128262
GLOBALSTAR M042         
1 25679U 99019D   24172.45925878 -.00000059  00000+0  31196-3 0  9998
2 25679  52.0035 352.1048 0002053 271.1290 104.3088 12.22063273141032
GLOBALSTAR M025         
1 25770U 99031A   24172.61400521 -.00000066  00000+0  30875-4 0  9997
2 25770  51.9822 276.8793 0001383 238.4177 225.3971 11.22550688441106
GLOBALSTAR M049         
1 25771U 99031B   24172.57373490 -.00000092  00000+0 -91428-3 0  9997
2 25771  51.9888 293.5624 0003372 131.9601 228.1483 11.12108815 77190
GLOBALSTAR M047         
1 25772U 99031C   24172.61691090 -.00000090  00000+0 -55152-3 0  9994
2 25772  51.9858 324.9775 0016044   4.4946 355.6001 11.31920762430166
GLOBALSTAR M052         
1 25773U 99031D   24172.58847051 -.00000098  00000+0 -10762-2 0  9996
2 25773  51.9889  47.2881 0002262 309.5041  59.1529 11.15051493438174
